{
  "links" : {
    "next" : "https://api.nasa.gov/neo/rest/v1/feed?start_date=2016-03-09&end_date=2016-03-09&detailed=true&api_key=t0TVs3DtDT2H8Oy2Zy8m2eVrNsAVKAexjcZXUckd",
    "prev" : "https://api.nasa.gov/neo/rest/v1/feed?start_date=2016-03-07&end_date=2016-03-07&detailed=true&api_key=t0TVs3DtDT2H8Oy2Zy8m2eVrNsAVKAexjcZXUckd",
    "self" : "https://api.nasa.gov/neo/rest/v1/feed?start_date=2016-03-08&end_date=2016-03-08&detailed=true&api_key=t0TVs3DtDT2H8Oy2Zy8m2eVrNsAVKAexjcZXUckd"
  },
  "element_count" : 15,
  "near_earth_objects" : {
    "2016-03-08" : [ {
      "links" : {
        "self" : "https://api.nasa.gov/neo/rest/v1/neo/3756947?api_key=t0TVs3DtDT2H8Oy2Zy8m2eVrNsAVKAexjcZXUckd"
      },
      "neo_reference_id" : "3756947",
      "name" : "(2016 PA8)",
      "nasa_jpl_url" : "http://ssd.jpl.nasa.gov/sbdb.cgi?sstr=3756947",
      "absolute_magnitude_h" : 21.9,
      "estimated_diameter" : {
        "kilometers" : {
          "estimated_diameter_min" : 0.1108038821,
          "estimated_diameter_max" : 0.2477650126
        },
        "meters" : {
          "estimated_diameter_min" : 110.8038821264,
          "estimated_diameter_max" : 247.7650126055
        },
        "miles" : {
          "estimated_diameter_min" : 0.068850319,
          "estimated_diameter_max" : 0.1539539936
        },
        "feet" : {
          "estimated_diameter_min" : 363.5298086356,
          "estimated_diameter_max" : 812.8773639568
        }
      },
      "is_potentially_hazardous_asteroid" : false,
      "close_approach_data" : [ {
        "close_approach_date" : "2016-03-08",
        "epoch_date_close_approach" : 1457424000000,
        "relative_velocity" : {
          "kilometers_per_second" : "11.1689283031",
          "kilometers_per_hour" : "40208.1418913371",
          "miles_per_hour" : "24983.7757213144"
        },
        "miss_distance" : {
          "astronomical" : "0.1969944097",
          "lunar" : "76.6308288574",
          "kilometers" : "29469944",
          "miles" : "18311774"
        },
        "orbiting_body" : "Earth"
      } ],
      "orbital_data" : {
        "orbit_id" : "15",
        "orbit_determination_date" : "2017-04-06 08:24:42",
        "orbit_uncertainty" : "5",
        "minimum_orbit_intersection" : ".175686",
        "jupiter_tisserand_invariant" : "5.773",
        "epoch_osculation" : "2458000.5",
        "eccentricity" : ".2427793058106898",
        "semi_major_axis" : "1.055656604707008",
        "inclination" : "15.04584729176395",
        "ascending_node_longitude" : "340.5984352598344",
        "orbital_period" : "396.1707710156547",
        "perihelion_distance" : ".7993650270417713",
        "perihelion_argument" : "195.092496820102",
        "aphelion_distance" : "1.311948182372246",
        "perihelion_time" : "2457858.759673495070",
        "mean_anomaly" : "128.7992988754802",
        "mean_motion" : ".9086990417720002",
        "equinox" : "J2000"
      }
    }, {
      "links" : {
        "self" : "https://api.nasa.gov/neo/rest/v1/neo/3662200?api_key=t0TVs3DtDT2H8Oy2Zy8m2eVrNsAVKAexjcZXUckd"
      },
      "neo_reference_id" : "3662200",
      "name" : "(2014 DH)",
      "nasa_jpl_url" : "http://ssd.jpl.nasa.gov/sbdb.cgi?sstr=3662200",
      "absolute_magnitude_h" : 26.6,
      "estimated_diameter" : {
        "kilometers" : {
          "estimated_diameter_min" : 0.0127219879,
          "estimated_diameter_max" : 0.0284472297
        },
        "meters" : {
          "estimated_diameter_min" : 12.7219878539,
          "estimated_diameter_max" : 28.4472296503
        },
        "miles" : {
          "estimated_diameter_min" : 0.0079050743,
          "estimated_diameter_max" : 0.0176762835
        },
        "feet" : {
          "estimated_diameter_min" : 41.7388066307,
          "estimated_diameter_max" : 93.330808926
        }
      },
      "is_potentially_hazardous_asteroid" : false,
      "close_approach_data" : [ {
        "close_approach_date" : "2016-03-08",
        "epoch_date_close_approach" : 1457424000000,
        "relative_velocity" : {
          "kilometers_per_second" : "7.535057992",
          "kilometers_per_hour" : "27126.2087712306",
          "miles_per_hour" : "16855.1712223238"
        },
        "miss_distance" : {
          "astronomical" : "0.2346673649",
          "lunar" : "91.2856063843",
          "kilometers" : "35105736",
          "miles" : "21813694"
        },
        "orbiting_body" : "Earth"
      } ],
      "orbital_data" : {
        "orbit_id" : "6",
        "orbit_determination_date" : "2017-04-06 08:42:26",
        "orbit_uncertainty" : "7",
        "minimum_orbit_intersection" : ".00433977",
        "jupiter_tisserand_invariant" : "6.086",
        "epoch_osculation" : "2458000.5",
        "eccentricity" : ".3617520201870584",
        "semi_major_axis" : ".9865180645431042",
        "inclination" : "1.239590217010763",
        "ascending_node_longitude" : "109.1867636410907",
        "orbital_period" : "357.8952959241585",
        "perihelion_distance" : ".6296431617436093",
        "perihelion_argument" : "284.1848615870529",
        "aphelion_distance" : "1.343392967342599",
        "perihelion_time" : "2458063.942349928280",
        "mean_anomaly" : "296.1845594667419",
        "mean_motion" : "1.005880781613535",
        "equinox" : "J2000"
      }
    }, {
      "links" : {
        "self" : "https://api.nasa.gov/neo/rest/v1/neo/3745642?api_key=t0TVs3DtDT2H8Oy2Zy8m2eVrNsAVKAexjcZXUckd"
      },
      "neo_reference_id" : "3745642",
      "name" : "(2016 EV28)",
      "nasa_jpl_url" : "http://ssd.jpl.nasa.gov/sbdb.cgi?sstr=3745642",
      "absolute_magnitude_h" : 28.5,
      "estimated_diameter" : {
        "kilometers" : {
          "estimated_diameter_min" : 0.0053034072,
          "estimated_diameter_max" : 0.0118587791
        },
        "meters" : {
          "estimated_diameter_min" : 5.3034072332,
          "estimated_diameter_max" : 11.8587790858
        },
        "miles" : {
          "estimated_diameter_min" : 0.0032953835,
          "estimated_diameter_max" : 0.0073687014
        },
        "feet" : {
          "estimated_diameter_min" : 17.3996305869,
          "estimated_diameter_max" : 38.9067567758
        }
      },
      "is_potentially_hazardous_asteroid" : false,
      "close_approach_data" : [ {
        "close_approach_date" : "2016-03-08",
        "epoch_date_close_approach" : 1457424000000,
        "relative_velocity" : {
          "kilometers_per_second" : "25.634849191",
          "kilometers_per_hour" : "92285.4570876191",
          "miles_per_hour" : "57342.5941553598"
        },
        "miss_distance" : {
          "astronomical" : "0.0010321562",
          "lunar" : "0.4015087485",
          "kilometers" : "154408.359375",
          "miles" : "95944.9140625"
        },
        "orbiting_body" : "Earth"
      } ],
      "orbital_data" : {
        "orbit_id" : "4",
        "orbit_determination_date" : "2017-04-06 08:27:44",
        "orbit_uncertainty" : "7",
        "minimum_orbit_intersection" : ".0010435",
        "jupiter_tisserand_invariant" : "3.454",
        "epoch_osculation" : "2458000.5",
        "eccentricity" : ".7697894000328673",
        "semi_major_axis" : "1.946179841926283",
        "inclination" : "1.977354468248357",
        "ascending_node_longitude" : "166.1599647508419",
        "orbital_period" : "991.6830305614827",
        "perihelion_distance" : ".4480312290537891",
        "perihelion_argument" : "106.7973726610267",
        "aphelion_distance" : "3.444328454798777",
        "perihelion_time" : "2458492.776352515408",
        "mean_anomaly" : "181.2942226053755",
        "mean_motion" : ".3630192197563076",
        "equinox" : "J2000"
      }
    } ]
  }
}